{
  "type": "FeatureCollection",
  "features": [
    {
      "type": "Feature",
      "properties": {
        "norad_id": 58701,
        "name": "TIANMU-1 16",
        "group": "weather",
        "lat": 70.06724107956306,
        "lon": 15.940776515672141,
        "alt_km": 488.1369140036559,
        "timestamp": "2025-12-19T22:41:52.022144+00:00",
        "meta_object_name": "TIANMU-1 16",
        "meta_object_id": "2024-004B",
        "meta_epoch": "2025-12-19T19:04:21.711936",
        "meta_mean_motion": 15.24521328,
        "meta_eccentricity": 0.0004311,
        "meta_inclination": 97.456,
        "meta_ra_of_asc_node": 174.6205,
        "meta_arg_of_pericenter": 264.0343,
        "meta_mean_anomaly": 96.0403,
        "meta_ephemeris_type": 0,
        "meta_classification_type": "U",
        "meta_norad_cat_id": 58701,
        "meta_element_set_no": 999,
        "meta_rev_at_epoch": 10842,
        "meta_bstar": 0.00020897,
        "meta_mean_motion_dot": 5.069e-05,
        "meta_mean_motion_ddot": 0,
        "tle_line1": "1 58701U 24004B   25353.79469574  .00005069  00000+0  20897-3 0  9998",
        "tle_line2": "2 58701  97.4560 174.6205 0004311 264.0343  96.0403 15.24521328108420"
      },
      "geometry": {
        "type": "Point",
        "coordinates": [
          15.940776515672141,
          70.06724107956306
        ]
      }
    },
    {
      "type": "Feature",
      "properties": {
        "norad_id": 58702,
        "name": "TIANMU-1 17",
        "group": "weather",
        "lat": -14.117857079424383,
        "lon": -6.703962547059513,
        "alt_km": 496.0545572424753,
        "timestamp": "2025-12-19T22:41:52.022163+00:00",
        "meta_object_name": "TIANMU-1 17",
        "meta_object_id": "2024-004C",
        "meta_epoch": "2025-12-19T18:41:53.300832",
        "meta_mean_motion": 15.24565025,
        "meta_eccentricity": 0.0003502,
        "meta_inclination": 97.4594,
        "meta_ra_of_asc_node": 175.0186,
        "meta_arg_of_pericenter": 266.265,
        "meta_mean_anomaly": 93.8187,
        "meta_ephemeris_type": 0,
        "meta_classification_type": "U",
        "meta_norad_cat_id": 58702,
        "meta_element_set_no": 999,
        "meta_rev_at_epoch": 10841,
        "meta_bstar": 0.00020528,
        "meta_mean_motion_dot": 4.984e-05,
        "meta_mean_motion_ddot": 0,
        "tle_line1": "1 58702U 24004C   25353.77908913  .00004984  00000+0  20528-3 0  9998",
        "tle_line2": "2 58702  97.4594 175.0186 0003502 266.2650  93.8187 15.24565025108412"
      },
      "geometry": {
        "type": "Point",
        "coordinates": [
          -6.703962547059513,
          -14.117857079424383
        ]
      }
    },
    {
      "type": "Feature",
      "properties": {
        "norad_id": 58703,
        "name": "TIANMU-1 18",
        "group": "weather",
        "lat": -73.02335482321537,
        "lon": -159.19665074664604,
        "alt_km": 497.6286417151532,
        "timestamp": "2025-12-19T22:41:52.022179+00:00",
        "meta_object_name": "TIANMU-1 18",
        "meta_object_id": "2024-004D",
        "meta_epoch": "2025-12-19T18:17:57.312096",
        "meta_mean_motion": 15.24549965,
        "meta_eccentricity": 0.0002862,
        "meta_inclination": 97.4611,
        "meta_ra_of_asc_node": 175.1988,
        "meta_arg_of_pericenter": 264.4335,
        "meta_mean_anomaly": 95.6576,
        "meta_ephemeris_type": 0,
        "meta_classification_type": "U",
        "meta_norad_cat_id": 58703,
        "meta_element_set_no": 999,
        "meta_rev_at_epoch": 10841,
        "meta_bstar": 0.00018871,
        "meta_mean_motion_dot": 4.574e-05,
        "meta_mean_motion_ddot": 0,
        "tle_line1": "1 58703U 24004D   25353.76246889  .00004574  00000+0  18871-3 0  9998",
        "tle_line2": "2 58703  97.4611 175.1988 0002862 264.4335  95.6576 15.24549965108419"
      },
      "geometry": {
        "type": "Point",
        "coordinates": [
          -159.19665074664604,
          -73.02335482321537
        ]
      }
    },
    {
      "type": "Feature",
      "properties": {
        "norad_id": 58990,
        "name": "INSAT-3DS",
        "group": "weather",
        "lat": 0.04079712588193477,
        "lon": 151.33488010419387,
        "alt_km": 35788.25535401421,
        "timestamp": "2025-12-19T22:41:52.022198+00:00",
        "meta_object_name": "INSAT-3DS",
        "meta_object_id": "2024-033A",
        "meta_epoch": "2025-12-18T15:23:52.092960",
        "meta_mean_motion": 1.00272396,
        "meta_eccentricity": 0.00010988,
        "meta_inclination": 0.0507,
        "meta_ra_of_asc_node": 110.1825,
        "meta_arg_of_pericenter": 160.7703,
        "meta_mean_anomaly": 129.6153,
        "meta_ephemeris_type": 0,
        "meta_classification_type": "U",
        "meta_norad_cat_id": 58990,
        "meta_element_set_no": 999,
        "meta_rev_at_epoch": 4525,
        "meta_bstar": 0,
        "meta_mean_motion_dot": -1.31e-06,
        "meta_mean_motion_ddot": 0,
        "tle_line1": "1 58990U 24033A   25352.64157515 -.00000131  00000+0  00000+0 0  9998",
        "tle_line2": "2 58990   0.0507 110.1825 0001098 160.7703 129.6153  1.00272396 45258"
      },
      "geometry": {
        "type": "Point",
        "coordinates": [
          151.33488010419387,
          0.04079712588193477
        ]
      }
    },
    {
      "type": "Feature",
      "properties": {
        "norad_id": 59051,
        "name": "METEOR-M2 4",
        "group": "weather",
        "lat": -24.205366762249508,
        "lon": -45.32157685871633,
        "alt_km": 817.9222278810221,
        "timestamp": "2025-12-19T22:41:52.022215+00:00",
        "meta_object_name": "METEOR-M2 4",
        "meta_object_id": "2024-039A",
        "meta_epoch": "2025-12-19T19:26:09.953952",
        "meta_mean_motion": 14.22402303,
        "meta_eccentricity": 0.000666,
        "meta_inclination": 98.6776,
        "meta_ra_of_asc_node": 310.6081,
        "meta_arg_of_pericenter": 337.7929,
        "meta_mean_anomaly": 22.2959,
        "meta_ephemeris_type": 0,
        "meta_classification_type": "U",
        "meta_norad_cat_id": 59051,
        "meta_element_set_no": 999,
        "meta_rev_at_epoch": 9376,
        "meta_bstar": 2.0538e-05,
        "meta_mean_motion_dot": 2e-08,
        "meta_mean_motion_ddot": 0,
        "tle_line1": "1 59051U 24039A   25353.80983743  .00000002  00000+0  20538-4 0  9991",
        "tle_line2": "2 59051  98.6776 310.6081 0006660 337.7929  22.2959 14.22402303 93767"
      },
      "geometry": {
        "type": "Point",
        "coordinates": [
          -45.32157685871633,
          -24.205366762249508
        ]
      }
    },
    {
      "type": "Feature",
      "properties": {
        "norad_id": 60133,
        "name": "GOES 19",
        "group": "weather",
        "lat": 0.001460343486155248,
        "lon": -5.934892439899033,
        "alt_km": 35782.57713843756,
        "timestamp": "2025-12-19T22:41:52.022233+00:00",
        "meta_object_name": "GOES 19",
        "meta_object_id": "2024-119A",
        "meta_epoch": "2025-12-19T10:38:46.804128",
        "meta_mean_motion": 1.00271901,
        "meta_eccentricity": 0.0001077,
        "meta_inclination": 0.0077,
        "meta_ra_of_asc_node": 262.8367,
        "meta_arg_of_pericenter": 52.3942,
        "meta_mean_anomaly": 217.5699,
        "meta_ephemeris_type": 0,
        "meta_classification_type": "U",
        "meta_norad_cat_id": 60133,
        "meta_element_set_no": 999,
        "meta_rev_at_epoch": 516,
        "meta_bstar": 0,
        "meta_mean_motion_dot": -2.24e-06,
        "meta_mean_motion_ddot": 0,
        "tle_line1": "1 60133U 24119A   25353.44359727 -.00000224  00000+0  00000+0 0  9996",
        "tle_line2": "2 60133   0.0077 262.8367 0001077  52.3942 217.5699  1.00271901  5165"
      },
      "geometry": {
        "type": "Point",
        "coordinates": [
          -5.934892439899033,
          0.001460343486155248
        ]
      }
    },
    {
      "type": "Feature",
      "properties": {
        "norad_id": 65815,
        "name": "FENGYUN 3H",
        "group": "weather",
        "lat": 29.68479894792405,
        "lon": 118.36334332954715,
        "alt_km": 823.7700520516573,
        "timestamp": "2025-12-19T22:41:52.022253+00:00",
        "meta_object_name": "FENGYUN 3H",
        "meta_object_id": "2025-219A",
        "meta_epoch": "2025-12-19T18:36:43.442784",
        "meta_mean_motion": 14.19906451,
        "meta_eccentricity": 7.19e-05,
        "meta_inclination": 98.6593,
        "meta_ra_of_asc_node": 293.2133,
        "meta_arg_of_pericenter": 104.6293,
        "meta_mean_anomaly": 255.4963,
        "meta_ephemeris_type": 0,
        "meta_classification_type": "U",
        "meta_norad_cat_id": 65815,
        "meta_element_set_no": 999,
        "meta_rev_at_epoch": 1192,
        "meta_bstar": 4.0428e-05,
        "meta_mean_motion_dot": 4.3e-07,
        "meta_mean_motion_ddot": 0,
        "tle_line1": "1 65815U 25219A   25353.77550281  .00000043  00000+0  40428-4 0  9995",
        "tle_line2": "2 65815  98.6593 293.2133 0000719 104.6293 255.4963 14.19906451 11929"
      },
      "geometry": {
        "type": "Point",
        "coordinates": [
          118.36334332954715,
          29.68479894792405
        ]
      }
    }
  ]
}